[Satellite]
VERSION=1.1
NAME=GPS BIIA-11 (PRN 24)
NICKNAME=GPS BIIA-11 (PRN 24)
TLE1=1 21552U 91047A   11059.25871205 -.00000023  00000-0  10000-3 0   218
TLE2=2 21552  54.3398 196.0136 0059555 340.6618  19.0668  2.00557003143945
